     2.10           NAVIGATION                              RINEX VERSION / TYPE
hgextrnav           John Knutson        11/05/2015 16:30:46 PGM / RUN BY / DATE
   .745058D-08 .711478D-08-.603921D-08-.384468D-08          ION ALPHA
   .901120D+05 .365063D+05-.664019D+04-.169091D+05          ION BETA
     -.931322574615D-09-.355271367880D-14   233472     1854 DELTA-UTC: A0,A1,T,W
    17                                                      LEAP SECONDS
                                                            END OF HEADER
15 15  7 19  8  0  0.0 -.261283479631D-03 -.204636307899D-11  .000000000000D+00
     .450000000000D+02 -.506250000000D+01  .568059376239D-08  .270369177171D+01
    -.242143869400D-06  .722552859224D-02  .477209687233D-05  .515367040443D+04
     .288000000000D+05 -.128522515297D-06 -.888966942459D+00 -.707805156708D-07
     .932660879332D+00  .273875000000D+03  .391847615100D+00 -.848928218411D-08
    -.100718481043D-09  .100000000000D+01  .185400000000D+04  .000000000000D+00
     .240000000000D+01  .000000000000D+00 -.107102096081D-07  .450000000000D+02
     .217260000000D+05  .400000000000D+01
19 15  7 19  8  0  0.0 -.516257248819D-03 -.909494701773D-12  .000000000000D+00
     .390000000000D+02 -.682812500000D+02  .435661004172D-08  .255405623629D+01
    -.362657010555D-05  .115915536880D-01  .346079468727D-05  .515374974632D+04
     .288000000000D+05 -.104308128357D-06  .239629501750D+01 -.182539224625D-06
     .970178953928D+00  .319656250000D+03  .582748447343D+00 -.812033824468D-08
    -.172150027883D-09  .100000000000D+01  .185400000000D+04  .000000000000D+00
     .240000000000D+01  .000000000000D+00 -.149011611938D-07  .390000000000D+02
     .218760000000D+05  .400000000000D+01
31 15  7 19  8  0  0.0  .309323891997D-03 -.125055521494D-11  .000000000000D+00
     .610000000000D+02  .144062500000D+02  .405874049140D-08  .536962198219D+00
     .579282641411D-06  .802541163284D-02  .103209167719D-04  .515355730057D+04
     .288000000000D+05  .838190317154D-07  .240163595001D+00 -.745058059692D-07
     .974981569153D+00  .188437500000D+03 -.523887275722D+00 -.780853954273D-08
    -.391087718945D-09  .100000000000D+01  .185400000000D+04  .000000000000D+00
     .240000000000D+01  .000000000000D+00 -.135041773319D-07  .610000000000D+02
     .230760000000D+05  .400000000000D+01
 4 15  7 19  8  0  0.0 -.255508348346D-05 -.306954461848D-11  .000000000000D+00
     .800000000000D+02 -.708437500000D+02  .475805533496D-08  .105711054499D+01
    -.379048287868D-05  .115644430043D-01  .103488564491D-04  .515367607880D+04
     .288000000000D+05 -.149011611938D-06 -.295103342442D+01  .502914190292D-07
     .940654951289D+00  .170406250000D+03  .107279262450D+01 -.830606026646D-08
    -.928610108910D-10  .100000000000D+01  .185400000000D+04  .000000000000D+00
     .240000000000D+01  .000000000000D+00 -.651925802231D-08  .800000000000D+02
     .234060000000D+05  .400000000000D+01
12 15  7 19  8  0  0.0  .311223324388D-03  .329691829393D-11  .000000000000D+00
     .480000000000D+02  .772812500000D+02  .396516516504D-08  .100961461130D+00
     .404193997383D-05  .555469118990D-02  .639446079731D-05  .515364434242D+04
     .288000000000D+05  .353902578354D-07  .130184923927D+01  .670552253723D-07
     .989704673675D+00  .269343750000D+03  .637362571749D+00 -.794818821680D-08
     .183579075377D-09  .100000000000D+01  .185400000000D+04  .000000000000D+00
     .240000000000D+01  .000000000000D+00 -.125728547573D-07  .480000000000D+02
     .246660000000D+05  .400000000000D+01
25 15  7 19  7 59 44.0 -.147833488882D-04 -.454747350886D-11  .000000000000D+00
     .100000000000D+02  .828437500000D+02  .415088718683D-08 -.564975454135D+00
     .422261655331D-05  .465041329153D-02  .649876892567D-05  .515365526581D+04
     .287840000000D+05  .186264514923D-07  .125459560578D+01  .689178705215D-07
     .978194840919D+00  .261968750000D+03  .755705977844D+00 -.803783480808D-08
     .136791412197D-09  .100000000000D+01  .185400000000D+04  .000000000000D+00
     .240000000000D+01  .000000000000D+00  .512227416039D-08  .100000000000D+02
     .248760000000D+05  .400000000000D+01
32 15  7 19  7 59 44.0 -.960165634751D-04  .101181285572D-10  .000000000000D+00
     .700000000000D+01  .478750000000D+02  .506842540598D-08  .109382977122D+01
     .238791108131D-05  .112755050650D-01  .758096575737D-05  .515372376060D+04
     .287840000000D+05  .260770320892D-07 -.180580114892D+01  .240281224251D-06
     .946531801889D+00  .229062500000D+03  .764145354750D-01 -.828213069827D-08
     .400016662300D-09  .100000000000D+01  .185400000000D+04  .000000000000D+00
     .240000000000D+01  .000000000000D+00 -.372529029846D-08  .700000000000D+01
     .259860000000D+05  .400000000000D+01
11 15  7 19  8  0  0.0 -.592315103859D-03 -.238742359215D-11  .000000000000D+00
     .310000000000D+02 -.965000000000D+02  .603525139245D-08  .703697794763D+00
    -.513345003128D-05  .160357400309D-01  .783987343311D-05  .515374785995D+04
     .288000000000D+05 -.208616256714D-06  .300129562063D+01 -.540167093277D-07
     .894041261070D+00  .196843750000D+03  .142276115793D+01 -.910609359106D-08
    -.276082928534D-09  .100000000000D+01  .185400000000D+04  .000000000000D+00
     .240000000000D+01  .000000000000D+00 -.121071934700D-07  .310000000000D+02
     .270960000000D+05  .400000000000D+01
 1 15  7 19  8  0  0.0 -.265287235379D-05  .568434188608D-12  .000000000000D+00
     .320000000000D+02 -.714687500000D+02  .417660254369D-08  .129399214326D+01
    -.380352139473D-05  .449864659458D-02  .106878578663D-04  .515367131042D+04
     .288000000000D+05 -.931322574615D-08 -.292752569725D+01  .521540641785D-07
     .962934231036D+00  .173875000000D+03  .415092613885D+00 -.788890003292D-08
    -.592881838766D-10  .100000000000D+01  .185400000000D+04  .000000000000D+00
     .240000000000D+01  .000000000000D+00  .512227416039D-08  .320000000000D+02
     .286560000000D+05  .400000000000D+01
 4 15  7 19 10  0  0.0 -.257696956396D-05 -.306954461848D-11  .000000000000D+00
     .970000000000D+02 -.787500000000D+02  .454661795632D-08  .210716290962D+01
    -.418908894062D-05  .115643517347D-01  .993348658085D-05  .515367885590D+04
     .360000000000D+05 -.316649675369D-07 -.295109310855D+01 -.245869159698D-06
     .940655900723D+00  .177468750000D+03  .107292040600D+01 -.800890503161D-08
     .142863093678D-10  .100000000000D+01  .185400000000D+04  .000000000000D+00
     .240000000000D+01  .000000000000D+00 -.651925802231D-08  .970000000000D+02
     .288060000000D+05  .400000000000D+01
11 15  7 19 10  0  0.0 -.592332333326D-03 -.238742359215D-11  .000000000000D+00
     .320000000000D+02 -.106406250000D+03  .576702593406D-08  .175371722180D+01
    -.580400228500D-05  .160362446913D-01  .711716711521D-05  .515375180244D+04
     .360000000000D+05  .782310962677D-07  .300123025013D+01 -.406056642532D-06
     .894041334216D+00  .207593750000D+03  .142288704788D+01 -.868179020284D-08
    -.163578242262D-09  .100000000000D+01  .185400000000D+04  .000000000000D+00
     .240000000000D+01  .000000000000D+00 -.121071934700D-07  .320000000000D+02
     .288060000000D+05  .400000000000D+01
14 15  7 19 10  0  0.0  .478825531900D-04 -.272848410532D-11  .000000000000D+00
     .770000000000D+02 -.140937500000D+02  .482520098899D-08 -.186740926377D+01
    -.601634383202D-06  .837769731879D-02  .500120222569D-05  .515361701775D+04
     .360000000000D+05  .124797224998D-06 -.763171383391D+00  .633299350739D-07
     .966073179249D+00  .282843750000D+03 -.197147462598D+01 -.808605110220D-08
    -.106790162525D-09  .100000000000D+01  .185400000000D+04  .000000000000D+00
     .340000000000D+01  .000000000000D+00 -.931322574615D-08  .770000000000D+02
     .288060000000D+05  .400000000000D+01
18 15  7 19 10  0  0.0  .418448355049D-03  .306954461848D-11  .000000000000D+00
     .650000000000D+02  .329687500000D+02  .552594446348D-08 -.304650684347D+00
     .183098018169D-05  .163536414038D-01  .861473381519D-05  .515361486244D+04
     .360000000000D+05 -.108033418655D-06 -.190912142502D+01  .208616256714D-06
     .924731680478D+00  .200718750000D+03 -.194651731962D+01 -.872250618454D-08
     .572523847916D-09  .100000000000D+01  .185400000000D+04  .000000000000D+00
     .240000000000D+01  .000000000000D+00 -.111758708954D-07  .650000000000D+02
     .288060000000D+05  .400000000000D+01
22 15  7 19 10  0  0.0  .372577924281D-03  .386535248253D-11  .000000000000D+00
     .104000000000D+03  .387500000000D+02  .546094175586D-08 -.773749537751D+00
     .221841037273D-05  .803612614982D-02  .828877091408D-05  .515368594170D+04
     .360000000000D+05 -.931322574615D-08 -.190804880470D+01  .137835741043D-06
     .922550757816D+00  .201531250000D+03 -.203812948782D+01 -.854285584424D-08
     .550022910662D-09  .100000000000D+01  .185400000000D+04  .000000000000D+00
     .340000000000D+01  .000000000000D+00 -.176951289177D-07  .104000000000D+03
     .288060000000D+05  .400000000000D+01
25 15  7 19 10  0  0.0 -.148159451783D-04 -.454747350886D-11  .000000000000D+00
     .110000000000D+02  .840312500000D+02  .421660420992D-08  .487442658229D+00
     .446848571301D-05  .465045939200D-02  .679679214954D-05  .515365531540D+04
     .360000000000D+05  .167638063431D-07  .125453731727D+01  .279396772385D-07
     .978195772797D+00  .254687500000D+03  .755812131569D+00 -.807140763510D-08
     .153577825704D-09  .100000000000D+01  .185400000000D+04  .000000000000D+00
     .240000000000D+01  .000000000000D+00  .512227416039D-08  .110000000000D+02
     .288060000000D+05  .400000000000D+01
